NORAD_CAT_ID,OBJECT_NAME,OBJECT_TYPE,EPOCH,MEAN_MOTION,ECCENTRICITY,INCLINATION,RA_OF_ASC_NODE,ARG_OF_PERICENTER,MEAN_ANOMALY,BSTAR,MEAN_MOTION_DOT,MEAN_MOTION_DDOT,TLE_LINE0,TLE_LINE1,TLE_LINE2,SEMIMAJOR_AXIS,PERIOD,APOGEE,PERIGEE,DECAYED
49142.0,STARLINK-3042,PAYLOAD,2023-10-19 17:10:29,14.98354056,0.0002623,69.999,293.0099,272.7186,87.3673,-0.00030331,-3.712e-05,0.0,0 STARLINK-3042,1 49142U 21082N   23292.71562436 -.00003712  00000-0 -30331-3 0  9993,2 49142  69.9990 293.0099 0002623 272.7186  87.3673 14.98354056116357,6950.119,96.105,573.807,570.16,0.0
49142.0,STARLINK-3042,PAYLOAD,2023-10-20 04:23:26,14.98338452,0.0002666,69.9986,291.8328,267.4859,92.5995,-6.8281e-05,-9.08e-06,0.0,0 STARLINK-3042,1 49142U 21082N   23293.18294927 -.00000908  00000-0 -68281-4 0  9992,2 49142  69.9986 291.8328 0002666 267.4859  92.5995 14.98338452116423,6950.167,96.106,573.885,570.179,0.0
49142.0,STARLINK-3042,PAYLOAD,2023-10-20 10:47:59,14.98335515,0.0002361,69.9992,291.159,266.426,93.663,-4.4265e-05,-6.21e-06,0.0,0 STARLINK-3042,1 49142U 21082N   23293.44999029 -.00000621  00000-0 -44265-4 0  9994,2 49142  69.9992 291.1590 0002361 266.4260  93.6630 14.98335515116460,6950.176,96.107,573.682,570.4,0.0
49142.0,STARLINK-3042,PAYLOAD,2023-10-21 02:49:19,14.98331184,0.0002502,69.9996,289.4765,261.7885,98.299,-2.4854e-05,-3.89e-06,0.0,0 STARLINK-3042,1 49142U 21082N   23294.11759111 -.00000389  00000-0 -24854-4 0  9998,2 49142  69.9996 289.4765 0002502 261.7885  98.2990 14.98331184116565,6950.189,96.107,573.793,570.315,0.0
49142.0,STARLINK-3042,PAYLOAD,2023-10-21 09:13:52,14.98328214,0.0002508,69.9988,288.8016,262.5734,97.514,3.8256e-05,3.64e-06,0.0,0 STARLINK-3042,1 49142U 21082N   23294.38463236  .00000364  00000-0  38256-4 0  9999,2 49142  69.9988 288.8016 0002508 262.5734  97.5140 14.98328214116600,6950.198,96.107,573.807,570.32,0.0
49142.0,STARLINK-3042,PAYLOAD,2023-10-21 17:14:32,14.98328502,0.0002271,70.0004,287.9595,274.8876,85.2024,4.7741e-05,4.77e-06,0.0,0 STARLINK-3042,1 49142U 21082N   23294.71843325  .00000477  00000-0  47741-4 0  9991,2 49142  70.0004 287.9595 0002271 274.8876  85.2024 14.98328502116654,6950.198,96.107,573.641,570.484,0.0
49142.0,STARLINK-3042,PAYLOAD,2023-10-22 04:27:28,14.98332047,0.0002612,69.9988,286.7813,265.423,94.6631,8.8976e-05,9.69e-06,0.0,0 STARLINK-3042,1 49142U 21082N   23295.18574788  .00000969  00000-0  88976-4 0  9998,2 49142  69.9988 286.7813 0002612 265.4230  94.6631 14.98332047116726,6950.187,96.107,573.867,570.236,0.0
49142.0,STARLINK-3042,PAYLOAD,2023-10-22 09:15:52,14.98333553,0.0002371,69.9986,286.2757,260.3243,99.7648,0.00013042,1.464e-05,0.0,0 STARLINK-3042,1 49142U 21082N   23295.38602686  .00001464  00000-0  13042-3 0  9991,2 49142  69.9986 286.2757 0002371 260.3243  99.7648 14.98333553116756,6950.182,96.107,573.695,570.399,0.0
49142.0,STARLINK-3042,PAYLOAD,2023-10-22 17:16:33,14.98329119,0.000243,69.9996,285.4343,275.0624,85.0258,8.2343e-05,8.9e-06,0.0,0 STARLINK-3042,1 49142U 21082N   23295.71983143  .00000890  00000-0  82343-4 0  9991,2 49142  69.9996 285.4343 0002430 275.0624  85.0258 14.98329119116805,6950.196,96.107,573.75,570.372,0.0
49142.0,STARLINK-3042,PAYLOAD,2023-10-23 04:29:29,14.98326596,0.0002798,69.9979,284.256,265.7837,94.3003,9.3664e-05,1.025e-05,0.0,0 STARLINK-3042,1 49142U 21082N   23296.18715222  .00001025  00000-0  93664-4 0  9993,2 49142  69.9979 284.2560 0002798 265.7837  94.3003 14.98326596116877,6950.203,96.107,574.013,570.124,0.0
49142.0,STARLINK-3042,PAYLOAD,2023-10-23 09:17:54,14.98329188,0.0002897,69.998,283.7514,269.2662,90.8165,8.9245e-05,9.72e-06,0.0,0 STARLINK-3042,1 49142U 21082N   23296.38743082  .00000972  00000-0  89245-4 0  9990,2 49142  69.9980 283.7514 0002897 269.2662  90.8165 14.98329188116901,6950.195,96.107,574.074,570.047,0.0
49142.0,STARLINK-3042,PAYLOAD,2023-10-24 04:31:30,14.98336358,0.0002895,69.9982,281.7312,270.5962,89.4866,7.9919e-05,8.61e-06,0.0,0 STARLINK-3042,1 49142U 21082N   23297.18854493  .00000861  00000-0  79919-4 0  9992,2 49142  69.9982 281.7312 0002895 270.5962  89.4866 14.98336358117026,6950.173,96.107,574.05,570.026,0.0
49142.0,STARLINK-3042,PAYLOAD,2023-10-24 09:19:54,14.98339175,0.0002754,69.9984,281.2262,268.5693,91.515,9.5262e-05,1.044e-05,0.0,0 STARLINK-3042,1 49142U 21082N   23297.38882201  .00001044  00000-0  95262-4 0  9995,2 49142  69.9984 281.2262 0002754 268.5693  91.5150 14.98339175117052,6950.165,96.106,573.944,570.115,0.0
49142.0,STARLINK-3042,PAYLOAD,2023-10-25 09:21:55,14.98329075,0.0002543,69.9988,278.7009,267.308,92.7788,6.3699e-05,6.67e-06,0.0,0 STARLINK-3042,1 49142U 21082N   23298.39022767  .00000667  00000-0  63699-4 0  9999,2 49142  69.9988 278.7009 0002543 267.3080  92.7788 14.98329075117204,6950.196,96.107,573.828,570.293,0.0
49142.0,STARLINK-3042,PAYLOAD,2023-10-26 04:35:30,14.98354509,0.0002477,69.9998,276.6806,263.4686,96.6191,0.00030716,3.576e-05,0.0,0 STARLINK-3042,1 49142U 21082N   23299.19132602  .00003576  00000-0  30716-3 0  9993,2 49142  69.9998 276.6806 0002477 263.4686  96.6191 14.98354509117326,6950.117,96.105,573.704,570.261,0.0
49142.0,STARLINK-3042,PAYLOAD,2023-10-26 07:47:47,14.98350128,0.0002349,69.999,276.3451,265.7949,94.2942,-0.00028767,-3.525e-05,0.0,0 STARLINK-3042,1 49142U 21082N   23299.32486064 -.00003525  00000-0 -28767-3 0  9991,2 49142  69.9990 276.3451 0002349 265.7949  94.2942 14.98350128117349,6950.131,96.106,573.628,570.363,0.0
49142.0,STARLINK-3042,PAYLOAD,2023-10-26 15:48:28,14.98332917,0.0002436,70.0,275.5019,271.8827,88.2053,7.4772e-07,-8.4e-07,0.0,0 STARLINK-3042,1 49142U 21082N   23299.65866566 -.00000084  00000-0  74772-6 0  9992,2 49142  70.0000 275.5019 0002436 271.8827  88.2053 14.98332917117392,6950.184,96.107,573.742,570.356,0.0
49142.0,STARLINK-3042,PAYLOAD,2023-10-27 07:49:48,14.98332754,0.0002846,69.9989,273.8184,269.0143,91.069,0.00028745,3.339e-05,0.0,0 STARLINK-3042,1 49142U 21082N   23300.32625763  .00003339  00000-0  28745-3 0  9992,2 49142  69.9989 273.8184 0002846 269.0143  91.0690 14.98332754117493,6950.184,96.107,574.027,570.071,0.0
49142.0,STARLINK-3042,PAYLOAD,2023-10-27 15:50:29,14.98331741,0.0002595,69.9997,272.9769,274.431,85.6553,6.0701e-05,6.31e-06,0.0,0 STARLINK-3042,1 49142U 21082N   23300.66006307  .00000631  00000-0  60701-4 0  9997,2 49142  69.9997 272.9769 0002595 274.4310  85.6553 14.98331741117546,6950.188,96.107,573.856,570.249,0.0
49142.0,STARLINK-3042,PAYLOAD,2023-10-27 22:15:02,14.9832199,0.0002875,69.9988,272.3033,272.3661,87.7169,-1.6988e-05,-2.96e-06,0.0,0 STARLINK-3042,1 49142U 21082N   23300.92711045 -.00000296  00000-0 -16988-4 0  9995,2 49142  69.9988 272.3033 0002875 272.3661  87.7169 14.98321990117586,6950.218,96.108,574.081,570.084,0.0
49142.0,STARLINK-3042,PAYLOAD,2023-10-27 23:51:10,14.98321544,0.0002874,69.9986,272.1362,271.4057,88.6773,-4.8933e-05,-6.77e-06,0.0,0 STARLINK-3042,1 49142U 21082N   23300.99387181 -.00000677  00000-0 -48933-4 0  9990,2 49142  69.9986 272.1362 0002874 271.4057  88.6773 14.98321544117592,6950.219,96.108,574.082,570.087,0.0
49142.0,STARLINK-3042,PAYLOAD,2023-10-28 07:51:50,14.98325775,0.000281,69.9992,271.2933,266.9421,93.1416,5.9469e-05,6.17e-06,0.0,0 STARLINK-3042,1 49142U 21082N   23301.32766771  .00000617  00000-0  59469-4 0  9992,2 49142  69.9992 271.2933 0002810 266.9421  93.1416 14.98325775117648,6950.206,96.107,574.024,570.118,0.0
49142.0,STARLINK-3042,PAYLOAD,2023-10-28 22:16:56,14.98413635,0.0002259,69.9991,269.7781,238.8539,121.2399,0.00097713,0.0001161,0.0,0 STARLINK-3042,1 49142U 21082N   23301.92843320  .00011610  00000-0  97713-3 0  9992,2 49142  69.9991 269.7781 0002259 238.8539 121.2399 14.98413635117731,6949.934,96.102,573.369,570.229,0.0
49142.0,STARLINK-3042,PAYLOAD,2023-10-29 04:41:28,14.98417276,0.0002828,69.9992,269.1051,263.5423,96.5414,0.00082859,9.83e-05,0.0,0 STARLINK-3042,1 49142U 21082N   23302.19547274  .00009830  00000-0  82859-3 0  9997,2 49142  69.9992 269.1051 0002828 263.5423  96.5414 14.98417276117776,6949.923,96.101,573.753,569.823,0.0
49142.0,STARLINK-3042,PAYLOAD,2023-10-29 07:53:46,14.98386204,0.0002957,69.9991,268.7686,270.3597,89.7224,0.0006212,7.338e-05,0.0,0 STARLINK-3042,1 49142U 21082N   23302.32901504  .00007338  00000-0  62120-3 0  9992,2 49142  69.9991 268.7686 0002957 270.3597  89.7224 14.98386204117796,6950.019,96.103,573.939,569.829,0.0
49142.0,STARLINK-3042,PAYLOAD,2023-10-29 20:42:55,14.98329488,0.0002654,69.9991,267.4225,271.3498,88.7357,2.1028e-05,1.58e-06,0.0,0 STARLINK-3042,1 49142U 21082N   23302.86314245  .00000158  00000-0  21028-4 0  9997,2 49142  69.9991 267.4225 0002654 271.3498  88.7357 14.98329488117872,6950.194,96.107,573.904,570.215,0.0
49142.0,STARLINK-3042,PAYLOAD,2023-10-29 22:19:04,14.98318819,0.0003347,69.999,267.2538,272.424,87.6535,5.0767e-05,5.13e-06,0.0,0 STARLINK-3042,1 49142U 21082N   23302.92990775  .00000513  00000-0  50767-4 0  9999,2 49142  69.9990 267.2538 0003347 272.4240  87.6535 14.98318819117886,6950.227,96.108,574.419,569.766,0.0
49142.0,STARLINK-3042,PAYLOAD,2023-10-30 04:43:36,14.98320615,0.0002536,70.0001,266.5816,271.444,88.6428,6.6685e-05,7.03e-06,0.0,0 STARLINK-3042,1 49142U 21082N   23303.19694922  .00000703  00000-0  66685-4 0  9991,2 49142  70.0001 266.5816 0002536 271.4440  88.6428 14.98320615117927,6950.222,96.108,573.849,570.324,0.0
49142.0,STARLINK-3042,PAYLOAD,2023-10-30 20:44:58,14.9827578,0.0002443,69.9996,264.8979,265.6991,94.3889,0.0009199,0.00010885,0.0,0 STARLINK-3042,1 49142U 21082N   23303.86456121  .00010885  00000-0  91990-3 0  9990,2 49142  69.9996 264.8979 0002443 265.6991  94.3889 14.98275780118020,6950.361,96.11,573.924,570.528,0.0
49142.0,STARLINK-3042,PAYLOAD,2023-10-30 22:21:05,14.98324096,0.0002772,69.9997,264.7301,269.9313,90.1528,4.5337e-05,4.48e-06,0.0,0 STARLINK-3042,1 49142U 21082N   23303.93130935  .00000448  00000-0  45337-4 0  9999,2 49142  69.9997 264.7301 0002772 269.9313  90.1528 14.98324096118039,6950.211,96.107,574.003,570.15,0.0
